OBJECT_NAME,OBJECT_ID,EPOCH,MEAN_MOTION,ECCENTRICITY,INCLINATION,RA_OF_ASC_NODE,ARG_OF_PERICENTER,MEAN_ANOMALY,EPHEMERIS_TYPE,CLASSIFICATION_TYPE,NORAD_CAT_ID,ELEMENT_SET_NO,REV_AT_EPOCH,BSTAR,MEAN_MOTION_DOT,MEAN_MOTION_DDOT
POLYITAN-1,2014-033AJ,2026-07-21T05:40:32.513088,15.34357320,.0007317,98.0939,231.7478,46.5639,313.6209,0,U,40042,999,65881,.44735464E-3,.14816E-3,0
TIGRISAT,2014-033AK,2026-07-20T22:28:09.004512,14.85259956,.0048182,97.7873,351.1843,325.2166,34.5902,0,U,40043,999,65063,.11612717E-3,.961E-5,0
AEROCUBE 6A,2014-033AM,2026-07-21T00:25:15.832704,14.98385750,.00360953,97.7272,8.6174,260.8166,98.8973,0,U,40045,999,65168,.37400587E-3,.4459E-4,0
AEROCUBE 6B,2014-033AN,2026-07-20T23:41:16.647936,14.99832032,.00382337,97.7207,8.4436,249.6783,110.0330,0,U,40046,999,65182,.30281197E-3,.3744E-4,0
CANX-4,2014-034C,2026-07-21T03:05:59.147520,14.81317693,.00113729,98.3075,78.6814,261.4644,98.5279,0,U,40055,999,64955,.79323269E-4,.562E-5,0
CANX-5,2014-034D,2026-07-21T03:03:09.506304,14.81335034,.00113771,98.3077,78.7249,261.7351,98.2571,0,U,40056,999,64036,.79470858E-4,.563E-5,0
UKUBE-1,2014-037F,2026-07-21T06:37:04.132128,15.14009769,.00031493,98.4253,209.1436,77.9373,282.2208,0,U,40074,999,65371,.33868357E-3,.6073E-4,0
BRITE-PL2 (HEWELIUSZ),2014-049B,2026-07-21T02:44:26.733120,14.94697808,.00137589,97.9121,314.3825,2.9421,357.1877,0,U,40119,999,64651,.12337604E-3,.1281E-4,0
AEROCUBE 5C,2015-058B,2026-07-21T05:34:06.221280,14.91602692,.01328047,64.7664,156.6646,50.1351,311.1353,0,U,40965,999,37073,.24683271E-3,.2764E-4,0
AEROCUBE 7,2015-058C,2026-07-21T03:07:37.337664,14.95951414,.01224553,64.7618,138.4796,48.4907,312.6637,0,U,40966,999,37103,.30414426E-3,.3793E-4,0
FOX-1A (AO-85),2015-058D,2026-07-21T03:45:26.024544,14.91113173,.01328739,64.7739,173.4037,43.5454,317.6056,0,U,40967,999,11863,.24217856E-3,.2672E-4,0
SINOD-D 1,2015-058E,2026-07-21T05:42:36.782208,14.96128120,.01215541,64.7741,152.2599,39.8713,321.1252,0,U,40968,999,12175,.32802723E-3,.4117E-4,0
SNAP-3 ALICE,2015-058G,2026-07-21T02:50:20.903136,15.68410894,.00261238,64.7499,345.8781,344.8146,15.2217,0,U,40970,999,12219,.11032274E-2,.129152E-2,0
LMRST-SAT,2015-058H,2026-07-21T02:53:39.264576,14.90728198,.01343603,64.7736,169.9187,45.5722,315.6291,0,U,40971,999,11861,.21010102E-3,.2277E-4,0
SNAP-3 EDDIE,2015-058J,2026-07-21T01:55:51.667104,15.69903544,.00272636,64.7408,336.4698,347.3015,12.7445,0,U,40972,999,12433,.11220991E-2,.140189E-2,0
PROPCUBE 3,2015-058K,2026-07-21T06:33:15.025248,14.94450063,.0126254,64.7679,146.0219,46.6871,314.4686,0,U,40973,999,11989,.28885053E-3,.3478E-4,0
BISONSAT,2015-058L,2026-07-21T01:23:30.228000,15.17027845,.00826706,64.7583,64.0572,33.3214,327.3075,0,U,40974,999,12075,.45065687E-3,.9577E-4,0
SNAP-3 JIMI,2015-058M,2026-07-21T03:14:42.865440,15.02663145,.01082895,64.7643,112.3320,42.0284,318.9077,0,U,40975,999,11932,.3793094E-3,.5579E-4,0
PROPCUBE 1 (FLORA),2015-058N,2026-07-21T05:47:05.430048,14.89350348,.01329228,64.7719,189.6817,47.7951,313.4352,0,U,40976,999,12133,.19764226E-3,.2042E-4,0
SINOD-D 3,2015-058P,2026-07-21T02:37:36.665760,14.94206504,.0121536,64.7712,169.8733,44.8685,316.2175,0,U,40977,999,11982,.29362747E-3,.3473E-4,0
RAVAN,2016-067B,2026-07-20T05:17:15.001728,15.57823305,.00028888,97.9827,94.6874,193.5482,166.5694,0,U,41849,999,53283,.45835135E-3,.34088E-3,0
CELTEE 1,2016-067C,2026-07-21T02:43:27.842016,15.19976528,.00024795,98.0628,70.9939,102.3427,257.8084,0,U,41850,999,53103,.18009007E-3,.3798E-4,0
OPTICUBE 04,2016-067D,2026-07-21T03:30:32.505984,15.09787640,.00157003,98.0671,56.1990,8.4615,351.6874,0,U,41851,999,53029,.10125921E-3,.1568E-4,0
AEROCUBE 8D,2016-067E,2026-07-20T21:21:41.514912,15.24818070,.00042339,98.0635,74.6276,42.1068,318.0492,0,U,41852,999,53120,.20584939E-3,.5027E-4,0
AEROCUBE 8C,2016-067F,2026-07-21T04:07:33.500928,15.25075205,.00038367,98.0509,72.1154,317.0251,43.0685,0,U,41853,999,53124,.22158185E-3,.546E-4,0
CORVUS BC2,2017-042X,2026-07-21T06:30:23.853888,15.06476999,.00128175,97.4097,2.3063,2.0546,358.0732,0,U,42846,999,49219,.15235962E-3,.2193E-4,0
CORVUS BC1,2017-042Y,2026-07-21T06:17:14.775648,15.06643302,.00110495,97.4130,3.1336,338.2766,21.7991,0,U,42847,999,49222,.17071221E-3,.2474E-4,0
MAKERSAT 0,2017-073D,2026-07-20T11:27:49.602816,15.33132517,.01057163,97.4572,84.2716,153.5455,207.1240,0,U,43016,999,47156,.33826306E-3,.12875E-3,0
SIRION PATHFINDER-2,2018-099B,2026-07-21T01:43:08.218560,15.14808314,.00090775,97.4235,250.3260,171.4215,188.7174,0,U,43759,999,41775,.18941162E-3,.3455E-4,0
CORVUS BC4,2018-099K,2026-07-21T01:23:56.357088,15.12729454,.00068201,97.4050,244.0487,235.7627,124.2959,0,U,43767,999,41752,.18011767E-3,.3093E-4,0
