POLYITAN-1              
1 40042U 14033AJ  26202.23648742  .00014816  00000+0  44735-3 0  9994
2 40042  98.0939 231.7478 0007317  46.5639 313.6209 15.34357320658818
TIGRISAT                
1 40043U 14033AK  26201.93621533  .00000961  00000+0  11613-3 0  9995
2 40043  97.7873 351.1843 0048182 325.2166  34.5902 14.85259956650634
AEROCUBE 6A             
1 40045U 14033AM  26202.01754436  .00004459  00000+0  37401-3 0  9995
2 40045  97.7272   8.6174 0036095 260.8166  98.8973 14.98385750651687
AEROCUBE 6B             
1 40046U 14033AN  26201.98699824  .00003744  00000+0  30281-3 0  9995
2 40046  97.7207   8.4436 0038233 249.6783 110.0330 14.99832032651822
CANX-4                  
1 40055U 14034C   26202.12915680  .00000562  00000+0  79323-4 0  9990
2 40055  98.3075  78.6814 0011372 261.4644  98.5279 14.81317693649555
CANX-5                  
1 40056U 14034D   26202.12719336  .00000563  00000+0  79471-4 0  9996
2 40056  98.3077  78.7249 0011377 261.7351  98.2571 14.81335034640365
UKUBE-1                 
1 40074U 14037F   26202.27574227  .00006073  00000+0  33868-3 0  9994
2 40074  98.4253 209.1436 0003149  77.9373 282.2208 15.14009769653714
BRITE-PL2 (HEWELIUSZ)   
1 40119U 14049B   26202.11419830  .00001281  00000+0  12338-3 0  9993
2 40119  97.9121 314.3825 0013758   2.9421 357.1877 14.94697808646510
AEROCUBE 5C             
1 40965U 15058B   26202.23201645  .00002764  00000+0  24683-3 0  9992
2 40965  64.7664 156.6646 0132804  50.1351 311.1353 14.91602692370733
AEROCUBE 7              
1 40966U 15058C   26202.13029326  .00003793  00000+0  30414-3 0  9998
2 40966  64.7618 138.4796 0122455  48.4907 312.6637 14.95951414371033
FOX-1A (AO-85)          
1 40967U 15058D   26202.15655121  .00002672  00000+0  24218-3 0  9999
2 40967  64.7739 173.4037 0132873  43.5454 317.6056 14.91113173118636
SINOD-D 1               
1 40968U 15058E   26202.23792572  .00004117  00000+0  32803-3 0  9996
2 40968  64.7741 152.2599 0121554  39.8713 321.1252 14.96128120121756
SNAP-3 ALICE            
1 40970U 15058G   26202.11829749  .00129152  00000+0  11032-2 0  9990
2 40970  64.7499 345.8781 0026123 344.8146  15.2217 15.68410894122190
LMRST-SAT               
1 40971U 15058H   26202.12059334  .00002277  00000+0  21010-3 0  9993
2 40971  64.7736 169.9187 0134360  45.5722 315.6291 14.90728198118612
SNAP-3 EDDIE            
1 40972U 15058J   26202.08045911  .00140189  00000+0  11221-2 0  9992
2 40972  64.7408 336.4698 0027263 347.3015  12.7445 15.69903544124337
PROPCUBE 3              
1 40973U 15058K   26202.27309057  .00003478  00000+0  28885-3 0  9992
2 40973  64.7679 146.0219 0126254  46.6871 314.4686 14.94450063119895
BISONSAT                
1 40974U 15058L   26202.05798875  .00009577  00000+0  45066-3 0  9995
2 40974  64.7583  64.0572 0082670  33.3214 327.3075 15.17027845120754
SNAP-3 JIMI             
1 40975U 15058M   26202.13521835  .00005579  00000+0  37931-3 0  9995
2 40975  64.7643 112.3320 0108289  42.0284 318.9077 15.02663145119321
PROPCUBE 1 (FLORA)      
1 40976U 15058N   26202.24103507  .00002042  00000+0  19764-3 0  9996
2 40976  64.7719 189.6817 0132922  47.7951 313.4352 14.89350348121330
SINOD-D 3               
1 40977U 15058P   26202.10945215  .00003473  00000+0  29363-3 0  9997
2 40977  64.7712 169.8733 0121536  44.8685 316.2175 14.94206504119827
RAVAN                   
1 41849U 16067B   26201.22031252  .00034088  00000+0  45835-3 0  9994
2 41849  97.9827  94.6874 0002888 193.5482 166.5694 15.57823305532833
CELTEE 1                
1 41850U 16067C   26202.11351669  .00003798  00000+0  18009-3 0  9999
2 41850  98.0628  70.9939 0002479 102.3427 257.8084 15.19976528531030
OPTICUBE 04             
1 41851U 16067D   26202.14620956  .00001568  00000+0  10126-3 0  9996
2 41851  98.0671  56.1990 0015700   8.4615 351.6874 15.09787640530299
AEROCUBE 8D             
1 41852U 16067E   26201.89006383  .00005027  00000+0  20585-3 0  9994
2 41852  98.0635  74.6276 0004233  42.1068 318.0492 15.24818070531202
AEROCUBE 8C             
1 41853U 16067F   26202.17191552  .00005460  00000+0  22158-3 0  9999
2 41853  98.0509  72.1154 0003836 317.0251  43.0685 15.25075205531246
CORVUS BC2              
1 42846U 17042X   26202.27110942  .00002193  00000+0  15236-3 0  9990
2 42846  97.4097   2.3063 0012817   2.0546 358.0732 15.06476999492191
CORVUS BC1              
1 42847U 17042Y   26202.26197657  .00002474  00000+0  17071-3 0  9999
2 42847  97.4130   3.1336 0011049 338.2766  21.7991 15.06643302492225
MAKERSAT 0              
1 43016U 17073D   26201.47765744  .00012875  00000+0  33826-3 0  9994
2 43016  97.4572  84.2716 0105716 153.5455 207.1240 15.33132517471566
SIRION PATHFINDER-2     
1 43759U 18099B   26202.07162290  .00003455  00000+0  18941-3 0  9996
2 43759  97.4235 250.3260 0009077 171.4215 188.7174 15.14808314417757
CORVUS BC4              
1 43767U 18099K   26202.05829117  .00003093  00000+0  18012-3 0  9998
2 43767  97.4050 244.0487 0006820 235.7627 124.2959 15.12729454417522
